[{"OBJECT_NAME":"STARLINK-32918","OBJECT_ID":"2025-037L","EPOCH":"2026-03-09T22:03:31.625856","MEAN_MOTION":14.98330356,"ECCENTRICITY":0.00027164,"INCLINATION":70.004,"RA_OF_ASC_NODE":353.9874,"ARG_OF_PERICENTER":250.6935,"MEAN_ANOMALY":109.3931,"EPHEMERIS_TYPE":0,"CLASSIFICATION_TYPE":"U","NORAD_CAT_ID":63087,"ELEMENT_SET_NO":999,"REV_AT_EPOCH":5872,"BSTAR":0.00049256549,"MEAN_MOTION_DOT":5.789e-5,"MEAN_MOTION_DDOT":0},{"OBJECT_NAME":"CZ-2C R\/B","OBJECT_ID":"2026-021B","EPOCH":"2026-03-09T21:51:23.415552","MEAN_MOTION":15.24093237,"ECCENTRICITY":0.01506252,"INCLINATION":97.65,"RA_OF_ASC_NODE":144.3935,"ARG_OF_PERICENTER":10.4871,"MEAN_ANOMALY":349.9447,"EPHEMERIS_TYPE":0,"CLASSIFICATION_TYPE":"U","NORAD_CAT_ID":67647,"ELEMENT_SET_NO":999,"REV_AT_EPOCH":573,"BSTAR":0.00038397881,"MEAN_MOTION_DOT":0.00012809,"MEAN_MOTION_DDOT":0}]
